start=new Date('2022-04-13T00:00:00.000Z').valueOf();
sats=[{"ARG_OF_PERICENTER":"74.5943","MEAN_MOTION":"15.06401052","EPOCH":"2022-04-12T20:56:09.415680","OBJECT_NAME":"STARLINK-1354","LAUNCH_DATE":"2020-04-22","TLE_LINE2":"2 45562  53.0547  11.8432 0001551  74.5943 285.5218 15.06401052110312","RCS_SIZE":"LARGE","GP_ID":"201090851","INCLINATION":"53.0547","MEAN_ANOMALY":"285.5218","BSTAR":"0.00112440000000","COUNTRY_CODE":"US","NORAD_CAT_ID":"45562","ELEMENT_SET_NO":"999","REF_FRAME":"TEME","MEAN_MOTION_DOT":"0.00016506","RA_OF_ASC_NODE":"11.8432","FILE":"3398892","OBJECT_TYPE":"PAYLOAD","PERIOD":"95.592","OBJECT_ID":"2020-025AH","TLE_LINE1":"1 45562U 20025AH  22102.87233120  .00016506  00000-0  11244-2 0  9996","DECAY_DATE":null,"PERIAPSIS":"546.136","CLASSIFICATION_TYPE":"U","TIME_SYSTEM":"UTC","CENTER_NAME":"EARTH","ECCENTRICITY":"0.00015510","MEAN_MOTION_DDOT":"0.0000000000000","EPHEMERIS_TYPE":"0","SITE":"AFETR","MEAN_ELEMENT_THEORY":"SGP4","APOAPSIS":"548.284","SEMIMAJOR_AXIS":"6925.345","REV_AT_EPOCH":"11031"},{"DECAY_DATE":null,"TLE_LINE1":"1 45563U 20025AJ  22102.88709146 -.00002364  00000-0 -13991-3 0  9995","PERIAPSIS":"546.283","OBJECT_ID":"2020-025AJ","FILE":"3398892","PERIOD":"95.593","OBJECT_TYPE":"PAYLOAD","MEAN_MOTION_DDOT":"0.0000000000000","APOAPSIS":"548.243","SEMIMAJOR_AXIS":"6925.398","REV_AT_EPOCH":"11031","MEAN_ELEMENT_THEORY":"SGP4","SITE":"AFETR","EPHEMERIS_TYPE":"0","CLASSIFICATION_TYPE":"U","CENTER_NAME":"EARTH","ECCENTRICITY":"0.00014150","TIME_SYSTEM":"UTC","TLE_LINE2":"2 45563  53.0563  11.8003 0001415  55.1284 304.9838 15.06383959110316","OBJECT_NAME":"STARLINK-1355","LAUNCH_DATE":"2020-04-22","GP_ID":"201091102","RCS_SIZE":"LARGE","MEAN_MOTION":"15.06383959","ARG_OF_PERICENTER":"55.1284","EPOCH":"2022-04-12T21:17:24.702144","REF_FRAME":"TEME","ELEMENT_SET_NO":"999","NORAD_CAT_ID":"45563","RA_OF_ASC_NODE":"11.8003","MEAN_MOTION_DOT":"-0.00002364","BSTAR":"-0.00013991000000","INCLINATION":"53.0563","MEAN_ANOMALY":"304.9838","COUNTRY_CODE":"US"},{"FILE":"3398892","OBJECT_TYPE":"PAYLOAD","PERIOD":"95.593","DECAY_DATE":null,"TLE_LINE1":"1 45564U 20025AK  22102.88339298 -.00001009  00000-0 -48848-4 0  9998","OBJECT_ID":"2020-025AK","PERIAPSIS":"546.141","CLASSIFICATION_TYPE":"U","TIME_SYSTEM":"UTC","CENTER_NAME":"EARTH","ECCENTRICITY":"0.00015820","MEAN_MOTION_DDOT":"0.0000000000000","EPHEMERIS_TYPE":"0","SITE":"AFETR","MEAN_ELEMENT_THEORY":"SGP4","APOAPSIS":"548.332","SEMIMAJOR_AXIS":"6925.372","REV_AT_EPOCH":"11031","ARG_OF_PERICENTER":"54.1077","MEAN_MOTION":"15.06392382","EPOCH":"2022-04-12T21:12:05.153472","LAUNCH_DATE":"2020-04-22","OBJECT_NAME":"STARLINK-1356","TLE_LINE2":"2 45564  53.0568  11.7992 0001582  54.1077 306.0058 15.06392382110319","RCS_SIZE":"LARGE","GP_ID":"201091853","INCLINATION":"53.0568","MEAN_ANOMALY":"306.0058","BSTAR":"-0.00004884800000","COUNTRY_CODE":"US","ELEMENT_SET_NO":"999","NORAD_CAT_ID":"45564","REF_FRAME":"TEME","MEAN_MOTION_DOT":"-0.00001009","RA_OF_ASC_NODE":"11.7992"},{"INCLINATION":"53.0555","MEAN_ANOMALY":"290.6129","BSTAR":"-0.00013927000000","COUNTRY_CODE":"US","ELEMENT_SET_NO":"999","NORAD_CAT_ID":"45565","REF_FRAME":"TEME","MEAN_MOTION_DOT":"-0.00002354","RA_OF_ASC_NODE":"13.6206","ARG_OF_PERICENTER":"69.5034","MEAN_MOTION":"15.06370454","EPOCH":"2022-04-12T11:28:14.992320","OBJECT_NAME":"STARLINK-1357","LAUNCH_DATE":"2020-04-22","TLE_LINE2":"2 45565  53.0555  13.6206 0001621  69.5034 290.6129 15.06370454110258","RCS_SIZE":"LARGE","GP_ID":"201057172","CLASSIFICATION_TYPE":"U","TIME_SYSTEM":"UTC","CENTER_NAME":"EARTH","ECCENTRICITY":"0.00016210","MEAN_MOTION_DDOT":"0.0000000000000","EPHEMERIS_TYPE":"0","SITE":"AFETR","MEAN_ELEMENT_THEORY":"SGP4","APOAPSIS":"548.427","REV_AT_EPOCH":"11025","SEMIMAJOR_AXIS":"6925.439","FILE":"3398537","OBJECT_TYPE":"PAYLOAD","PERIOD":"95.594","DECAY_DATE":null,"TLE_LINE1":"1 45565U 20025AL  22102.47795130 -.00002354  00000-0 -13927-3 0  9998","OBJECT_ID":"2020-025AL","PERIAPSIS":"546.181"},{"PERIOD":"95.593","OBJECT_TYPE":"PAYLOAD","FILE":"3398892","TLE_LINE1":"1 45566U 20025AM  22102.89077885 -.00002609  00000-0 -15641-3 0  9993","DECAY_DATE":null,"OBJECT_ID":"2020-025AM","PERIAPSIS":"546.229","CENTER_NAME":"EARTH","ECCENTRICITY":"0.00015080","TIME_SYSTEM":"UTC","CLASSIFICATION_TYPE":"U","APOAPSIS":"548.318","SEMIMAJOR_AXIS":"6925.408","REV_AT_EPOCH":"11031","SITE":"AFETR","EPHEMERIS_TYPE":"0","MEAN_ELEMENT_THEORY":"SGP4","MEAN_MOTION_DDOT":"0.0000000000000","EPOCH":"2022-04-12T21:22:43.292640","MEAN_MOTION":"15.06380445","ARG_OF_PERICENTER":"51.1445","GP_ID":"201090351","RCS_SIZE":"LARGE","TLE_LINE2":"2 45566  53.0559  11.7748 0001508  51.1445 308.9678 15.06380445110310","LAUNCH_DATE":"2020-04-22","OBJECT_NAME":"STARLINK-1358","COUNTRY_CODE":"US","BSTAR":"-0.00015641000000","INCLINATION":"53.0559","MEAN_ANOMALY":"308.9678","RA_OF_ASC_NODE":"11.7748","MEAN_MOTION_DOT":"-0.00002609","REF_FRAME":"TEME","ELEMENT_SET_NO":"999","NORAD_CAT_ID":"45566"},{"OBJECT_TYPE":"PAYLOAD","PERIOD":"95.593","FILE":"3398892","DECAY_DATE":null,"TLE_LINE1":"1 45567U 20025AN  22102.90183118 -.00000994  00000-0 -47868-4 0  9995","OBJECT_ID":"2020-025AN","PERIAPSIS":"546.209","TIME_SYSTEM":"UTC","ECCENTRICITY":"0.00014930","CENTER_NAME":"EARTH","CLASSIFICATION_TYPE":"U","SITE":"AFETR","EPHEMERIS_TYPE":"0","MEAN_ELEMENT_THEORY":"SGP4","REV_AT_EPOCH":"11032","SEMIMAJOR_AXIS":"6925.378","APOAPSIS":"548.277","MEAN_MOTION_DDOT":"0.0000000000000","EPOCH":"2022-04-12T21:38:38.213952","ARG_OF_PERICENTER":"82.3517","MEAN_MOTION":"15.06390338","RCS_SIZE":"LARGE","GP_ID":"201091603","OBJECT_NAME":"STARLINK-1361","LAUNCH_DATE":"2020-04-22","TLE_LINE2":"2 45567  53.0558  11.7089 0001493  82.3517 277.7641 15.06390338110323","COUNTRY_CODE":"US","MEAN_ANOMALY":"277.7641","INCLINATION":"53.0558","BSTAR":"-0.00004786800000","MEAN_MOTION_DOT":"-0.00000994","RA_OF_ASC_NODE":"11.7089","ELEMENT_SET_NO":"999","NORAD_CAT_ID":"45567","REF_FRAME":"TEME"},{"CLASSIFICATION_TYPE":"U","ECCENTRICITY":"0.00014740","CENTER_NAME":"EARTH","TIME_SYSTEM":"UTC","MEAN_MOTION_DDOT":"0.0000000000000","SEMIMAJOR_AXIS":"6925.414","REV_AT_EPOCH":"11031","APOAPSIS":"548.300","MEAN_ELEMENT_THEORY":"SGP4","SITE":"AFETR","EPHEMERIS_TYPE":"0","FILE":"3398892","PERIOD":"95.593","OBJECT_TYPE":"PAYLOAD","TLE_LINE1":"1 45568U 20025AP  22102.89351248 -.00002737  00000-0 -16501-3 0  9991","OBJECT_ID":"2020-025AP","DECAY_DATE":null,"PERIAPSIS":"546.258","BSTAR":"-0.00016501000000","MEAN_ANOMALY":"282.5217","INCLINATION":"53.0559","COUNTRY_CODE":"US","REF_FRAME":"TEME","ELEMENT_SET_NO":"999","NORAD_CAT_ID":"45568","RA_OF_ASC_NODE":"11.7577","MEAN_MOTION_DOT":"-0.00002737","MEAN_MOTION":"15.06378653","ARG_OF_PERICENTER":"77.5937","EPOCH":"2022-04-12T21:26:39.478272","TLE_LINE2":"2 45568  53.0559  11.7577 0001474  77.5937 282.5217 15.06378653110316","LAUNCH_DATE":"2020-04-22","OBJECT_NAME":"STARLINK-1363","GP_ID":"201091353","RCS_SIZE":"LARGE"},{"PERIAPSIS":"545.771","TLE_LINE1":"1 45569U 20025AQ  22102.90550808 -.00000072  00000-0  14055-4 0  9999","DECAY_DATE":null,"OBJECT_ID":"2020-025AQ","PERIOD":"95.593","OBJECT_TYPE":"PAYLOAD","FILE":"3398892","SEMIMAJOR_AXIS":"6925.381","REV_AT_EPOCH":"11031","APOAPSIS":"548.721","SITE":"AFETR","MEAN_ELEMENT_THEORY":"SGP4","EPHEMERIS_TYPE":"0","MEAN_MOTION_DDOT":"0.0000000000000","ECCENTRICITY":"0.00021300","CENTER_NAME":"EARTH","TIME_SYSTEM":"UTC","CLASSIFICATION_TYPE":"U","GP_ID":"201090101","RCS_SIZE":"LARGE","TLE_LINE2":"2 45569  53.0573  11.7071 0002130  53.3019 306.8166 15.06389508110319","LAUNCH_DATE":"2020-04-22","OBJECT_NAME":"STARLINK-1366","EPOCH":"2022-04-12T21:43:55.898112","MEAN_MOTION":"15.06389508","ARG_OF_PERICENTER":"53.3019","RA_OF_ASC_NODE":"11.7071","MEAN_MOTION_DOT":"-0.00000072","REF_FRAME":"TEME","NORAD_CAT_ID":"45569","ELEMENT_SET_NO":"999","COUNTRY_CODE":"US","BSTAR":"0.00001405500000","MEAN_ANOMALY":"306.8166","INCLINATION":"53.0573"},{"PERIOD":"95.594","OBJECT_TYPE":"PAYLOAD","FILE":"3398892","PERIAPSIS":"546.224","TLE_LINE1":"1 45570U 20025AR  22102.89814885 -.00003838  00000-0 -23906-3 0  9995","DECAY_DATE":null,"OBJECT_ID":"2020-025AR","CENTER_NAME":"EARTH","ECCENTRICITY":"0.00015360","TIME_SYSTEM":"UTC","CLASSIFICATION_TYPE":"U","APOAPSIS":"548.352","SEMIMAJOR_AXIS":"6925.423","REV_AT_EPOCH":"11031","EPHEMERIS_TYPE":"0","SITE":"AFETR","MEAN_ELEMENT_THEORY":"SGP4","MEAN_MOTION_DDOT":"0.0000000000000","EPOCH":"2022-04-12T21:33:20.060640","MEAN_MOTION":"15.06375642","ARG_OF_PERICENTER":"69.3319","GP_ID":"201090852","RCS_SIZE":"LARGE","TLE_LINE2":"2 45570  53.0554  11.7277 0001536  69.3319 290.7835 15.06375642110315","OBJECT_NAME":"STARLINK-1376","LAUNCH_DATE":"2020-04-22","COUNTRY_CODE":"US","BSTAR":"-0.00023906000000","INCLINATION":"53.0554","MEAN_ANOMALY":"290.7835","RA_OF_ASC_NODE":"11.7277","MEAN_MOTION_DOT":"-0.00003838","REF_FRAME":"TEME","NORAD_CAT_ID":"45570","ELEMENT_SET_NO":"999"},{"CENTER_NAME":"EARTH","ECCENTRICITY":"0.00016840","TIME_SYSTEM":"UTC","CLASSIFICATION_TYPE":"U","APOAPSIS":"548.379","REV_AT_EPOCH":"11047","SEMIMAJOR_AXIS":"6925.348","EPHEMERIS_TYPE":"0","SITE":"AFETR","MEAN_ELEMENT_THEORY":"SGP4","MEAN_MOTION_DDOT":"0.0000000000000","PERIOD":"95.592","OBJECT_TYPE":"PAYLOAD","FILE":"3398892","TLE_LINE1":"1 45571U 20025AS  22102.91379902 -.00000482  00000-0 -13463-4 0  9995","DECAY_DATE":null,"PERIAPSIS":"546.047","OBJECT_ID":"2020-025AS","COUNTRY_CODE":"US","BSTAR":"-0.00001346300000","INCLINATION":"53.0553","MEAN_ANOMALY":"294.8025","RA_OF_ASC_NODE":"1.6793","MEAN_MOTION_DOT":"-0.00000482","REF_FRAME":"TEME","NORAD_CAT_ID":"45571","ELEMENT_SET_NO":"999","EPOCH":"2022-04-12T21:55:52.235328","MEAN_MOTION":"15.06400152","ARG_OF_PERICENTER":"65.3139","GP_ID":"201091103","RCS_SIZE":"LARGE","TLE_LINE2":"2 45571  53.0553   1.6793 0001684  65.3139 294.8025 15.06400152110474","OBJECT_NAME":"STARLINK-1261","LAUNCH_DATE":"2020-04-22"}];
